BEESAT-4                
1 41619U 16040W   22125.88016415  .00022441  00000+0  77643-3 0  9999
2 41619  97.2207 177.6741 0008010 263.0300  97.0030 15.29862576314217
CAS-2T & KS-1Q          
1 41847U 16066G   22125.42786750  .00000978  00000+0  15729-3 0  9994
2 41847  98.5537 190.1342 0363618 338.7519  19.8889 14.38530441288167
NAYIF-1 (EO-88)         
1 42017U 17008BX  22125.11870880  .00016219  00000+0  50804-3 0  9993
2 42017  97.2714 191.8988 0005874  57.6508 302.5303 15.33151979290433
ZHUHAI-1 02 (CAS-4B)    
1 42759U 17034B   22125.70470539  .00005310  00000+0  32003-3 0  9998
2 42759  43.0178 208.2729 0008219   9.3982 126.0814 15.11582447269886
ZHUHAI-1 01 (CAS-4A)    
1 42761U 17034D   22125.74480385  .00005379  00000+0  32312-3 0  9993
2 42761  43.0173 206.8692 0009438  13.3201 131.5455 15.11675512269899
MAX VALIER SAT          
1 42778U 17036P   22125.39079757  .00017202  00000+0  66497-3 0  9990
2 42778  97.2096 167.9833 0013077 116.7912 243.4666 15.26213496270330
RADFXSAT (FOX-1B)       
1 43017U 17073E   22125.54419168  .00006464  00000+0  49054-3 0  9997
2 43017  97.6791  21.4849 0248917 328.6952  29.9639 14.81104927240764
FOX-1D (AO-92)          
1 43137U 18004AC  22125.16299933  .00018894  00000+0  68252-3 0  9990
2 43137  97.3695 200.7333 0008990 148.7429 211.4347 15.28481048239724
DIWATA-2B               
1 43678U 18084H   22125.79978232  .00001609  00000+0  16403-3 0  9990
2 43678  97.9630 258.5842 0011228  69.4740 290.7683 14.92091150191493
ES'HAIL 2               
1 43700U 18090A   22125.31387439  .00000150  00000+0  00000+0 0  9996
2 43700   0.0100 122.7574 0002446 311.0033 288.2310  1.00276037 12847
FOX-1CLIFF (AO-95)      
1 43770U 18099N   22125.45801882  .00003911  00000+0  35114-3 0  9996
2 43770  97.6223 192.9249 0015426  64.2630 296.0182 14.96198578186581
ITASAT 1                
1 43786U 18099AE  22125.45593175  .00004462  00000+0  39797-3 0  9999
2 43786  97.6247 193.8170 0015879  56.9700 303.3045 14.96381722186625
JY1SAT (JO-97)          
1 43803U 18099AX  22125.42032002  .00005469  00000+0  48094-3 0  9991
2 43803  97.6220 193.5279 0016138  56.3515 303.9244 14.96829656186631
UWE-4                   
1 43880U 18111E   22125.25041032  .00004556  00000+0  39126-3 0  9997
2 43880  97.6709  32.3182 0013328 102.7274 257.5439 14.97883398183234
NEXUS (FO-99)           
1 43937U 19003F   22125.07382961  .00010923  00000+0  38122-3 0  9990
2 43937  97.1345 160.1357 0019163 311.6352  48.3247 15.29588281183347
PSAT2 (NO-104)          
1 44354U 19036R   22125.28185862  .00099665 -41886-5  99289-3 0  9999
2 44354  28.5264 116.3497 0250258 206.1789 152.5965 15.33954492158030
JAISAT-1                
1 44419U 19038F   22125.89150599  .00013127  00000+0  67196-3 0  9996
2 44419  97.6337  95.7036 0017310 280.1983  79.7297 15.16617167156602
DUCHIFAT-3              
1 44854U 19089C   22125.73082671  .00005064  00000+0  39730-3 0  9997
2 44854  36.9686 353.5646 0008361 246.0173 113.9651 15.00759988131517
CAS-6 (TO-108)          
1 44881U 19093C   22125.83133092  .00000825  00000+0  11141-3 0  9993
2 44881  97.8931 205.6515 0014361 329.7711  30.2642 14.81672243128469
RS-44 & BREEZE-KM R/B   
1 44909U 19096E   22125.89501372  .00000002  00000+0 -41137-4 0  9990
2 44909  82.5202 258.5452 0218179  59.4255 302.8174 12.79713154110069
ORBITAL FACTORY 2 (OF-2)
1 45113U 19071C   22125.40167973  .00055174  00000+0  12196-2 0  9993
2 45113  51.6400 270.8599 0009646  11.8904 348.2308 15.43248372126725
HUSKYSAT-1 (HO-107)     
1 45119U 19071J   22125.45000660  .00033222  00000+0  75729-3 0  9995
2 45119  51.6393 270.4109 0009472   9.6661 350.4505 15.42566443126722
BY70-2                  
1 45857U 20042B   22125.88639482  .00009598  00000+0  12981-2 0  9990
2 45857  97.9561 203.1530 0009193 244.9122 115.0988 14.79190425 99167
SALSAT                  
1 46495U 20068K   22125.39549970  .00004610  00000+0  33449-3 0  9998
2 46495  97.7259  66.6974 0017906  65.3521 294.9567 15.04286016 87710
BY70-3                  
1 46839U 20079N   22125.91561506  .00021705  00000+0  54342-3 0  9998
2 46839  97.1998 198.6193 0007465 126.6520 350.8325 15.40072723 83699
RADFXSAT-2 (AO-109)     
1 47311U 21002C   22125.58744064  .00010497  00000+0  43309-3 0  9993
2 47311  60.6838 163.5234 0011275 279.2357  80.7455 15.24531457 71929
UVSQ-SAT                
1 47438U 21006AB  22125.88922513  .00010764  00000+0  57592-3 0  9993
2 47438  97.4400 185.7812 0013470  68.0504 292.2159 15.15147669 70835
DIY-1 (ARDUIQUBE)       
1 47963U 21022AH  22125.55133307  .00023988  00000+0  13905-2 0  9994
2 47963  97.5351  27.4446 0015074 282.7468  77.2078 15.12082513 60467
XW-3 (CAS-9)            
1 50466U 21131B   22125.88125287  .00000282  00000+0  10709-3 0  9993
2 50466  98.5809 203.1537 0003247 272.8645  87.2170 14.38479041 18794
